#dP2026  4 12  0  0  0.00000000     289 d+D   IGc20 FIT AIUB
## 2414      0.00000000   300.00000000 61142 0.0000000000000
+  115   G01G02G03G04G05G06G07G08G09G10G11G12G13G14G15G16G17
+        G18G19G20G21G22G23G24G25G26G27G28G29G30G31G32R02R03
+        R04R05R06R07R08R09R11R12R14R15R16R17R18R19R20R21R22
+        R24R26E02E03E04E05E06E07E08E09E10E11E12E13E14E15E16
+        E18E19E21E23E25E26E27E28E29E30E31E32E33E34E36C06C19
+        C20C21C22C23C24C25C26C27C28C29C30C32C33C34C35C36C37
+        C39C40C41C42C43C44C45C47C48C49J02J03J04  0  0  0  0
++         5  5  6  5  5  5  5  5  5  6  5  5  5  5  5  5  5
++         5  5  5  5  5  5  5  5  5  5  5  5  5  5  5  5  5
++         5  5  5  5  5  5  5  8  5  5  5  5  5  5  5  5  5
++         5  5  5  5  5  5  5  5  5  5  5  5  5  5  5  5  5
++         5  5  5  5  5  5  5  5  5  5  5  5  5  5  5  0  5
++         5  5  5  5  5  5  5 10  5  5  5  5  5  5  5  5  5
++         5  5  5  5  5  5  5  5  5  5  5  5  5  0  0  0  0
%c M  cc GPS ccc cccc cccc cccc cccc ccccc ccccc ccccc ccccc
%c cc cc ccc ccc cccc cccc cccc cccc ccccc ccccc ccccc ccccc
%f  1.2500000  1.025000000  0.00000000000  0.000000000000000
%f  0.0000000  0.000000000  0.00000000000  0.000000000000000
%i    0    0    0    0      0      0      0      0         0
%i    0    0    0    0      0      0      0      0         0
/* Center for Orbit Determination in Europe (CODE)                              
/* MGEX orbits and clocks for year-day 2026-1020                                
/* Middle day of a 3-day long-arc multi-GNSS solution                           
/* Systems considered: GPS/GLONASS/Galileo/BeiDou/QZSS                          
/* Product reference - DOI 10.48350/197028                                      
/* PCV:IGS20_2408 OL/AL:FES2014b NONE     YN ORB:CoN CLK:CoN                    
*  2026  4 12  9 55  0.00000000
PG01  -1088.688875 -15354.240516 -21648.239332    299.323833
PG02  10427.081197 -16879.774080 -16985.066268     77.162094
PG03  -9098.068290 -21140.132003 -13554.839063    506.311607
PG04   -530.754431 -24412.282391  10267.491967     52.978048
PG05  -4613.134307  14883.870738  21329.845201   -231.630495
PG06 -25978.707879   4325.749583  -3985.924007   -610.833627
PG07 -16773.093812  -9249.822135  19180.174800   -172.211456
PG08   5961.205297 -25544.666607   1663.127685    462.917254
PG09  -8687.331039 -17833.011522  17530.992025    760.374117
PG10  21296.679779   8366.858984 -13500.199152   -589.543205
PG11 -21554.972407  12242.161845   9485.489940   -375.750750
PG12   5154.309874  21341.760022 -15237.287353   -607.982326
PG13 -13472.941465  21674.161996   6568.467670    679.869433
PG14 -22030.120721 -10420.974275 -10830.115344    742.974794
PG15  -2121.223213  26417.242754    716.484224    402.418863
PG16  10837.879625 -10494.250003  21460.158269    243.531383
PG17 -14781.561019  -3204.635590 -21472.393116   -110.930326
PG18  18518.056378   7419.200928  17718.822864   -378.688691
PG19 -16741.259673   6639.691118 -19409.015901    696.821073
PG20 -10044.809110  23622.368511   6969.024065    103.830481
PG21 -13244.735018   8022.659606  21589.443590    414.057612
PG22 -20091.098788  -5906.194600 -15819.575907    -19.864744
PG23  20535.228114  16970.214204  -1852.660457    635.235830
PG24  -4180.301394  17662.633424 -19817.637710    -39.633477
PG25  16654.814442  20230.624693  -5471.275257    430.629033
PG26  19311.763462  -2157.784465  18035.452150   -352.699999
PG27  12484.279420 -20210.647186  11052.086713   -103.621040
PG28  25678.180037  -5165.132501  -4452.362964   -557.095717
PG29   6238.578677  19424.050231  16881.293628   -341.688231
PG30 -24508.814881   -655.104088  10740.598586    184.844174
PG31  24098.426130 -10272.210605   4992.080612   -155.895346
PG32  15407.147785  -1778.338237 -21261.249452     -1.684196
PR02  -6290.586012 -22258.966578  10733.580345     12.257936
PR03 -10809.014863  -5618.803514  22455.806146    142.382618
PR04  -8567.243563  12710.498551  20427.179261    348.687110
PR05  -2112.808961  24265.989132   7618.268814    166.382917
PR06   6097.147400  22925.104653  -9392.195261     25.149757
PR07  10752.638096   5995.264258 -22300.783239    120.471289
PR08   8361.003374 -13142.641054 -20121.209255     -4.175437
PR09  17128.986478  14121.277143 -12459.601990    319.519512
PR11  17513.759616  -1403.491054  18493.813219     18.078499
PR12    396.762534 -11826.707306  22620.541021     67.662949
PR14 -23625.865281  -8692.152215  -4182.614368     32.094307
PR15 -17047.655641   1914.170578 -18863.481868     57.373779
PR16   -211.641016  11728.833958 -22635.280465     47.644573
PR17 -19165.111226   3733.981232 -16388.414118    286.398334
PR18 -21764.153016  13240.544424  -1733.394574    256.291030
PR19 -12284.363703  16416.847760  15129.465461     42.244755
PR20   4598.359455   9988.424627  23033.083574    230.866970
PR21  17406.806377  -1188.791353  18612.540650   -297.932353
PR22  21546.028789 -13643.233109    122.932371    120.334132
PR24  -5642.628824  -9495.275536 -22982.352903   -159.216469
PR26   9226.403867  -9857.085628 -21622.009256    -27.353982
PE02  13865.342921  25607.301974  -5362.462318     32.085523
PE03   2875.538632  23646.274833 -17559.125451    -10.778761
PE04 -15707.985943  -5995.747802  24371.945307   -121.587208
PE05 -11520.725349  27253.162126   -511.617682     26.591969
PE06 -19020.811701   4869.677571  22141.642499   -257.060331
PE07  19216.447462 -14864.441083 -16917.160249    -56.713366
PE08  15496.401531   6126.035256 -24462.375480   -125.956309
PE09 -19165.053604  14809.950989  17002.779029   -228.377229
PE10 -29473.748094   1503.695189  -2318.184502   -784.491611
PE11 -27312.322364   8038.728844   8124.265529   4697.747117
PE12 -27107.704670  -4488.141241 -11051.490929    -39.292950
PE13  27491.434516  -7755.556929  -7727.520478    -52.341758
PE14  14516.319530 -27861.171779   7257.209290   5095.316139
PE15  26771.525400   4858.805906  11637.724706   -249.988203
PE16 -16840.034074   5000.664360 -23826.409979    -25.107360
PE18 -12235.975951  18994.318377  -7129.423720   2660.566341
PE19  -1908.435136 -24162.333477  17012.453445   2875.769248
PE21   2417.620436 -21112.847716  20600.860304   -734.632978
PE23 -14028.067270 -25507.466596   5380.771934    -31.392158
PE25  -2906.404993  20775.744627 -20884.140043     21.985103
PE26  11906.738350 -15732.554849 -22059.309108    273.825673
PE27  17467.129363  -3919.053617  23571.180916   -959.079416
PE28 -10763.951215 -15665.083003  22690.094962    -34.826678
PE29  11434.159451 -27295.470448    654.223243   -196.114280
PE30  22036.787408  14772.157991  13123.763461   -932.335877
PE31 -21975.682185 -15321.860708 -12583.892131   -133.035859
PE32  10727.938608  15708.382846 -22671.115509    -12.642201
PE33 -10079.336445 -14412.775855 -23808.119793    -10.499799
PE34  10303.798704  14342.998607  23749.940873   -247.445194
PE36 -12210.579876  15511.727720  22061.373748   -550.221003
PC06  -5327.208554  25094.200915  33587.356316    283.529926
PC19   3843.340570 -23619.188412 -14372.731676   -951.464527
PC20  13379.169919  -8679.973998 -22899.337173   -926.370554
PC21 -15920.255454 -13733.206950  18382.217649   -860.883429
PC22  -8634.345681 -26385.333453   3026.290591    449.285816
PC23  11672.399523  17168.432414 -18646.676847   -469.059491
PC24 -24987.664226   2339.957068 -12195.958653   -233.951984
PC25  -7775.815935  14720.963540 -22407.939418    894.093392
PC26 -26155.676371  -9048.076735   3412.228661   -624.157044
PC27  16767.898798   5248.954855  21654.604861    619.059152
PC28   4312.803765  17346.821428  21430.924317    505.586977
PC29  14438.336580 -22848.720121  -6952.235094    589.155621
PC30  22318.108060 -13484.498889   9896.062668    426.172695
PC32  16011.860209  13636.852495 -18311.411936   -927.671569
PC33  -3783.211153  23544.893062  14468.253718   -921.118009
PC34 -22402.153093  13132.551819 -10264.712046    923.588728
PC35  -3361.111720 -18381.731440 -20739.974528   -343.011371
PC36   8610.009669 -14362.446672  22345.045910    289.772383
PC37  25568.694544  10294.066892  -4457.868612   -963.868262
PC39 -23049.529433  22918.872903 -26878.179760    -22.315430
PC40 -17988.585638  37807.665468  -3251.600674   -223.071426
PC41   7959.746854  26667.567824  -1665.344659   -939.372185
PC42 -14347.284537   5947.574883  23221.502623   -895.796691
PC43 -13380.298450  23115.983962   8103.584204    136.014808
PC44 -17122.281183  -4616.129319 -21578.335506    833.629466
PC45 -11009.903668 -17197.476849  19004.704345   -794.005829
PC47  19781.733962 -19672.961077    -60.688713   -603.140615
PC48  10245.522820 -15938.936633 -20483.690846    658.198087
PC49  -5901.517192  22018.060287  16092.996371   -931.526958
PJ02 -20425.209788  25681.613675 -21838.156386     -2.116756
PJ03 -31138.553514  24993.621456  18742.831755     -2.503712
PJ04 -27784.793273  27860.880440  20703.954601      0.068557
EOF
